CCSDS_OMM_VERS = 2.0
CREATION_DATE  = 
ORIGINATOR     = 

OBJECT_NAME    = TWILIGHT AH
OBJECT_ID      = 2026-004AH
CENTER_NAME    = EARTH
REF_FRAME      = TEME
TIME_SYSTEM    = UTC
MEAN_ELEMENT_THEORY = SGP/SGP4

EPOCH          = 2026-02-04T06:38:55.909536
MEAN_MOTION    = 15.18242002
ECCENTRICITY   = .00107745
INCLINATION    = 97.4465
RA_OF_ASC_NODE = 36.2726
ARG_OF_PERICENTER = 81.9183
MEAN_ANOMALY   = 278.3273

EPHEMERIS_TYPE = 0
CLASSIFICATION_TYPE = U
NORAD_CAT_ID   = 67394
ELEMENT_SET_NO = 999
REV_AT_EPOCH   = 359
BSTAR          = .32130664E-3
MEAN_MOTION_DOT = .6521E-4
MEAN_MOTION_DDOT = 0

CCSDS_OMM_VERS = 2.0
CREATION_DATE  = 
ORIGINATOR     = 

OBJECT_NAME    = TWILIGHT AJ
OBJECT_ID      = 2026-004AJ
CENTER_NAME    = EARTH
REF_FRAME      = TEME
TIME_SYSTEM    = UTC
MEAN_ELEMENT_THEORY = SGP/SGP4

EPOCH          = 2026-02-04T05:17:36.565440
MEAN_MOTION    = 14.87797739
ECCENTRICITY   = .00048096
INCLINATION    = 97.8008
RA_OF_ASC_NODE = 35.9937
ARG_OF_PERICENTER = 190.3537
MEAN_ANOMALY   = 169.7581

EPHEMERIS_TYPE = 0
CLASSIFICATION_TYPE = U
NORAD_CAT_ID   = 67395
ELEMENT_SET_NO = 999
REV_AT_EPOCH   = 350
BSTAR          = .33129902E-3
MEAN_MOTION_DOT = .2972E-4
MEAN_MOTION_DDOT = 0

CCSDS_OMM_VERS = 2.0
CREATION_DATE  = 
ORIGINATOR     = 

OBJECT_NAME    = TWILIGHT AK
OBJECT_ID      = 2026-004AK
CENTER_NAME    = EARTH
REF_FRAME      = TEME
TIME_SYSTEM    = UTC
MEAN_ELEMENT_THEORY = SGP/SGP4

EPOCH          = 2026-02-04T05:13:13.607904
MEAN_MOTION    = 15.17818792
ECCENTRICITY   = .00088133
INCLINATION    = 97.4501
RA_OF_ASC_NODE = 36.2114
ARG_OF_PERICENTER = 81.6083
MEAN_ANOMALY   = 278.6150

EPHEMERIS_TYPE = 0
CLASSIFICATION_TYPE = U
NORAD_CAT_ID   = 67396
ELEMENT_SET_NO = 999
REV_AT_EPOCH   = 358
BSTAR          = .49871389E-3
MEAN_MOTION_DOT = .10036E-3
MEAN_MOTION_DDOT = 0

CCSDS_OMM_VERS = 2.0
CREATION_DATE  = 
ORIGINATOR     = 

OBJECT_NAME    = CARBSAR
OBJECT_ID      = 2026-004AL
CENTER_NAME    = EARTH
REF_FRAME      = TEME
TIME_SYSTEM    = UTC
MEAN_ELEMENT_THEORY = SGP/SGP4

EPOCH          = 2026-02-04T06:51:13.593600
MEAN_MOTION    = 15.17803593
ECCENTRICITY   = .00078954
INCLINATION    = 97.4521
RA_OF_ASC_NODE = 36.2805
ARG_OF_PERICENTER = 85.0250
MEAN_ANOMALY   = 275.1885

EPHEMERIS_TYPE = 0
CLASSIFICATION_TYPE = U
NORAD_CAT_ID   = 67397
ELEMENT_SET_NO = 999
REV_AT_EPOCH   = 359
BSTAR          = .47773568E-3
MEAN_MOTION_DOT = .9604E-4
MEAN_MOTION_DDOT = 0

CCSDS_OMM_VERS = 2.0
CREATION_DATE  = 
ORIGINATOR     = 

OBJECT_NAME    = TWILIGHT AM
OBJECT_ID      = 2026-004AM
CENTER_NAME    = EARTH
REF_FRAME      = TEME
TIME_SYSTEM    = UTC
MEAN_ELEMENT_THEORY = SGP/SGP4

EPOCH          = 2026-02-04T05:11:41.761248
MEAN_MOTION    = 15.17927265
ECCENTRICITY   = .00087735
INCLINATION    = 97.4559
RA_OF_ASC_NODE = 36.2310
ARG_OF_PERICENTER = 90.4134
MEAN_ANOMALY   = 269.8105

EPHEMERIS_TYPE = 0
CLASSIFICATION_TYPE = U
NORAD_CAT_ID   = 67398
ELEMENT_SET_NO = 999
REV_AT_EPOCH   = 358
BSTAR          = .32025312E-3
MEAN_MOTION_DOT = .6438E-4
MEAN_MOTION_DDOT = 0

CCSDS_OMM_VERS = 2.0
CREATION_DATE  = 
ORIGINATOR     = 

OBJECT_NAME    = TWILIGHT AN
OBJECT_ID      = 2026-004AN
CENTER_NAME    = EARTH
REF_FRAME      = TEME
TIME_SYSTEM    = UTC
MEAN_ELEMENT_THEORY = SGP/SGP4

EPOCH          = 2026-02-04T05:08:13.119936
MEAN_MOTION    = 15.18087913
ECCENTRICITY   = .00095262
INCLINATION    = 97.4547
RA_OF_ASC_NODE = 36.2305
ARG_OF_PERICENTER = 89.9699
MEAN_ANOMALY   = 270.2627

EPHEMERIS_TYPE = 0
CLASSIFICATION_TYPE = U
NORAD_CAT_ID   = 67399
ELEMENT_SET_NO = 999
REV_AT_EPOCH   = 358
BSTAR          = .55376308E-3
MEAN_MOTION_DOT = .11242E-3
MEAN_MOTION_DDOT = 0

CCSDS_OMM_VERS = 2.0
CREATION_DATE  = 
ORIGINATOR     = 

OBJECT_NAME    = CONNECTA IOT-13
OBJECT_ID      = 2026-004AP
CENTER_NAME    = EARTH
REF_FRAME      = TEME
TIME_SYSTEM    = UTC
MEAN_ELEMENT_THEORY = SGP/SGP4

EPOCH          = 2026-02-04T06:36:19.512576
MEAN_MOTION    = 15.18324231
ECCENTRICITY   = .00110264
INCLINATION    = 97.4547
RA_OF_ASC_NODE = 36.3009
ARG_OF_PERICENTER = 89.9448
MEAN_ANOMALY   = 270.3049

EPHEMERIS_TYPE = 0
CLASSIFICATION_TYPE = U
NORAD_CAT_ID   = 67400
ELEMENT_SET_NO = 999
REV_AT_EPOCH   = 359
BSTAR          = -.15904395E-3
MEAN_MOTION_DOT = -.3332E-4
MEAN_MOTION_DDOT = 0

CCSDS_OMM_VERS = 2.0
CREATION_DATE  = 
ORIGINATOR     = 

OBJECT_NAME    = CONNECTA IOT-14
OBJECT_ID      = 2026-004AQ
CENTER_NAME    = EARTH
REF_FRAME      = TEME
TIME_SYSTEM    = UTC
MEAN_ELEMENT_THEORY = SGP/SGP4

EPOCH          = 2026-02-04T06:33:55.520928
MEAN_MOTION    = 15.18493830
ECCENTRICITY   = .00126481
INCLINATION    = 97.4476
RA_OF_ASC_NODE = 36.2837
ARG_OF_PERICENTER = 85.0995
MEAN_ANOMALY   = 275.1683

EPHEMERIS_TYPE = 0
CLASSIFICATION_TYPE = U
NORAD_CAT_ID   = 67401
ELEMENT_SET_NO = 999
REV_AT_EPOCH   = 359
BSTAR          = .92423507E-3
MEAN_MOTION_DOT = .19065E-3
MEAN_MOTION_DDOT = 0

CCSDS_OMM_VERS = 2.0
CREATION_DATE  = 
ORIGINATOR     = 

OBJECT_NAME    = CONNECTA IOT-15
OBJECT_ID      = 2026-004AR
CENTER_NAME    = EARTH
REF_FRAME      = TEME
TIME_SYSTEM    = UTC
MEAN_ELEMENT_THEORY = SGP/SGP4

EPOCH          = 2026-02-04T05:34:32.352096
MEAN_MOTION    = 15.16803613
ECCENTRICITY   = .00047804
INCLINATION    = 97.4548
RA_OF_ASC_NODE = 36.2075
ARG_OF_PERICENTER = 74.7266
MEAN_ANOMALY   = 285.4495

EPHEMERIS_TYPE = 0
CLASSIFICATION_TYPE = U
NORAD_CAT_ID   = 67402
ELEMENT_SET_NO = 999
REV_AT_EPOCH   = 357
BSTAR          = -.22024743E-3
MEAN_MOTION_DOT = -.4389E-4
MEAN_MOTION_DDOT = 0

CCSDS_OMM_VERS = 2.0
CREATION_DATE  = 
ORIGINATOR     = 

OBJECT_NAME    = SHIJIAN-29B (SJ-29B)
OBJECT_ID      = 2025-315C
CENTER_NAME    = EARTH
REF_FRAME      = TEME
TIME_SYSTEM    = UTC
MEAN_ELEMENT_THEORY = SGP/SGP4

EPOCH          = 2026-02-04T01:44:42.785952
MEAN_MOTION    = 1.00271735
ECCENTRICITY   = .00019816
INCLINATION    = 3.0610
RA_OF_ASC_NODE = 98.5938
ARG_OF_PERICENTER = 310.7205
MEAN_ANOMALY   = 184.1946

EPHEMERIS_TYPE = 0
CLASSIFICATION_TYPE = U
NORAD_CAT_ID   = 67403
ELEMENT_SET_NO = 999
REV_AT_EPOCH   = 35
BSTAR          = 0
MEAN_MOTION_DOT = -.74E-6
MEAN_MOTION_DDOT = 0

CCSDS_OMM_VERS = 2.0
CREATION_DATE  = 
ORIGINATOR     = 

OBJECT_NAME    = STARLINK-36484
OBJECT_ID      = 2026-005A
CENTER_NAME    = EARTH
REF_FRAME      = TEME
TIME_SYSTEM    = UTC
MEAN_ELEMENT_THEORY = SGP/SGP4

EPOCH          = 2026-02-04T06:00:04.000320
MEAN_MOTION    = 15.41113372
ECCENTRICITY   = .00015829
INCLINATION    = 42.9996
RA_OF_ASC_NODE = 69.9402
ARG_OF_PERICENTER = 267.4749
MEAN_ANOMALY   = 197.0302

EPHEMERIS_TYPE = 0
CLASSIFICATION_TYPE = U
NORAD_CAT_ID   = 67404
ELEMENT_SET_NO = 999
REV_AT_EPOCH   = 476
BSTAR          = -.16829793E-1
MEAN_MOTION_DOT = -.662892E-2
MEAN_MOTION_DDOT = 0

CCSDS_OMM_VERS = 2.0
CREATION_DATE  = 
ORIGINATOR     = 

OBJECT_NAME    = STARLINK-36452
OBJECT_ID      = 2026-005B
CENTER_NAME    = EARTH
REF_FRAME      = TEME
TIME_SYSTEM    = UTC
MEAN_ELEMENT_THEORY = SGP/SGP4

EPOCH          = 2026-02-04T06:00:04.000320
MEAN_MOTION    = 15.50530972
ECCENTRICITY   = .00013786
INCLINATION    = 42.9999
RA_OF_ASC_NODE = 69.8559
ARG_OF_PERICENTER = 261.0776
MEAN_ANOMALY   = 237.8938

EPHEMERIS_TYPE = 0
CLASSIFICATION_TYPE = U
NORAD_CAT_ID   = 67405
ELEMENT_SET_NO = 999
REV_AT_EPOCH   = 476
BSTAR          = .62809866E-3
MEAN_MOTION_DOT = .36615E-3
MEAN_MOTION_DDOT = 0

