TWILIGHT AH             
1 67394U 26004AH  26035.27703599  .00006521  00000+0  32131-3 0  9995
2 67394  97.4465  36.2726 0010774  81.9183 278.3273 15.18242002  3595
TWILIGHT AJ             
1 67395U 26004AJ  26035.22056210  .00002972  00000+0  33130-3 0  9998
2 67395  97.8008  35.9937 0004809 190.3537 169.7581 14.87797739  3506
TWILIGHT AK             
1 67396U 26004AK  26035.21751861  .00010036  00000+0  49871-3 0  9991
2 67396  97.4501  36.2114 0008813  81.6083 278.6150 15.17818792  3586
CARBSAR                 
1 67397U 26004AL  26035.28557400  .00009604  00000+0  47774-3 0  9991
2 67397  97.4521  36.2805 0007895  85.0250 275.1885 15.17803593  3590
TWILIGHT AM             
1 67398U 26004AM  26035.21645557  .00006438  00000+0  32025-3 0  9991
2 67398  97.4559  36.2310 0008773  90.4134 269.8105 15.17927265  3587
TWILIGHT AN             
1 67399U 26004AN  26035.21404074  .00011242  00000+0  55376-3 0  9992
2 67399  97.4547  36.2305 0009526  89.9699 270.2627 15.18087913  3588
CONNECTA IOT-13         
1 67400U 26004AP  26035.27522584 -.00003332  00000+0 -15904-3 0  9994
2 67400  97.4547  36.3009 0011026  89.9448 270.3049 15.18324231  3590
CONNECTA IOT-14         
1 67401U 26004AQ  26035.27355927  .00019065  00000+0  92424-3 0  9990
2 67401  97.4476  36.2837 0012648  85.0995 275.1683 15.18493830  3594
CONNECTA IOT-15         
1 67402U 26004AR  26035.23231889 -.00004389  00000+0 -22025-3 0  9992
2 67402  97.4548  36.2075 0004780  74.7266 285.4495 15.16803613  3578
SHIJIAN-29B (SJ-29B)    
1 67403U 25315C   26035.07271743 -.00000074  00000+0  00000+0 0  9993
2 67403   3.0610  98.5938 0001981 310.7205 184.1946  1.00271735   358
STARLINK-36484          
1 67404U 26005A   26035.25004630 -.00662892  00000+0 -16830-1 0  9993
2 67404  42.9996  69.9402 0001582 267.4749 197.0302 15.41113372  4764
STARLINK-36452          
1 67405U 26005B   26035.25004630  .00036615  00000+0  62810-3 0  9991
2 67405  42.9999  69.8559 0001378 261.0776 237.8938 15.50530972  4760
